HULIANWANG DIGUI-114    
1 66953U 25287A   25362.37786440  .00000040  00000+0  30534-4 0  9992
2 66953  86.4952 340.4811 0001731  85.2347 274.9006 13.62060403  2664
HULIANWANG DIGUI-115    
1 66954U 25287B   25362.30127108  .00000040  00000+0  30553-4 0  9997
2 66954  86.4760 340.5489 0003893  64.9296 295.2263 13.61926978  2659
HULIANWANG DIGUI-116    
1 66955U 25287C   25362.29720234  .00000185  00000+0  21733-3 0  9994
2 66955  86.4968 340.4874 0002763  86.1288 274.0183 13.62405302  2659
HULIANWANG DIGUI-117    
1 66956U 25287D   25358.91908891  .00000024  00000+0  90260-5 0  9991
2 66956  86.4976 341.7257 0001044 103.5815 256.5458 13.64670553  2192
HULIANWANG DIGUI-118    
1 66957U 25287E   25362.51058519  .00000182  00000+0  21280-3 0  9995
2 66957  86.4946 340.4177 0001409  89.7446 270.3872 13.62673219  2685
CZ-6A R/B               
1 66958U 25287F   25363.56002367  .00000148  00000+0  91673-4 0  9998
2 66958  86.5068 339.7064 0106879  51.5555 309.5152 13.94922683  2888
STARLINK-35887          
1 66959U 25288A   25364.16670139 -.02040204  00000+0 -45442-1 0  9996
2 66959  43.0002  61.9289 0001186 278.5290 214.7187 15.46277784  4634
STARLINK-35879          
1 66960U 25288B   25364.16670139 -.00046461  00000+0 -79094-3 0  9999
2 66960  43.0009  61.9055 0001716 276.6669 225.8891 15.50573986  4635
STARLINK-35761          
1 66961U 25288C   25364.16670139 -.00019820  00000+0 -33311-3 0  9991
2 66961  43.0007  61.9002 0001175 265.0829 239.3926 15.50559714  4637
STARLINK-35874          
1 66962U 25288D   25364.16670139  .00036046  00000+0  61823-3 0  9998
2 66962  43.0008  61.8951 0001689 279.1770 227.2117 15.50541922  4632
STARLINK-36133          
1 66963U 25288E   25364.16670139  .00005567  00000+0  10074-3 0  9995
2 66963  43.0008  61.8904 0001700 276.6555 231.6437 15.50551685  4639
STARLINK-36104          
1 66964U 25288F   25364.16670139  .00056024  00000+0  95541-3 0  9992
2 66964  43.0008  61.8854 0001698 282.8970 227.3271 15.50536212  4637
